{"type": "FeatureCollection", "features": [ {"type": "Feature", "properties": {"norad_id": 32234, "name": "FENGYUN 1C DEB", "group": "fengyun-1c-debris", "lat": 74.4914022251982, "lon": 45.095162510888834, "alt_km": 947.4352442916679, "timestamp": "2025-12-08T03:50:07.283093+00:00", "meta": {"OBJECT_NAME": "FENGYUN 1C DEB", "OBJECT_ID": "1999-025CWG", "EPOCH": "2025-12-02T12:59:39.185664", "MEAN_MOTION": 13.9406659, "ECCENTRICITY": 0.0137699, "INCLINATION": 98.5292, "RA_OF_ASC_NODE": 187.1676, "ARG_OF_PERICENTER": 4.214, "MEAN_ANOMALY": 356.0148, "EPHEMERIS_TYPE": 0, "CLASSIFICATION_TYPE": "U", "NORAD_CAT_ID": 32234, "ELEMENT_SET_NO": 999, "REV_AT_EPOCH": 93067, "BSTAR": 0.0016148587, "MEAN_MOTION_DOT": 2.273e-05, "MEAN_MOTION_DDOT": 0}, "tle": {"line1": "1 32234U 99025CWG 25336.54142576  .00002273  00000+0  16149-2 0  9998", "line2": "2 32234  98.5292 187.1676 0137699   4.2140 356.0148 13.94066590930678"}}, "geometry": {"type": "Point", "coordinates": [45.095162510888834, 74.4914022251982]}}, {"type": "Feature", "properties": {"norad_id": 32241, "name": "FENGYUN 1C DEB", "group": "fengyun-1c-debris", "lat": -70.22988500020824, "lon": 37.838245022170604, "alt_km": 736.3695166233301, "timestamp": "2025-12-08T03:50:07.283103+00:00", "meta": {"OBJECT_NAME": "FENGYUN 1C DEB", "OBJECT_ID": "1999-025CWP", "EPOCH": "2025-12-07T08:00:11.254176", "MEAN_MOTION": 14.28677435, "ECCENTRICITY": 0.01462334, "INCLINATION": 99.0776, "RA_OF_ASC_NODE": 10.568, "ARG_OF_PERICENTER": 239.0921, "MEAN_ANOMALY": 119.5814, "EPHEMERIS_TYPE": 0, "CLASSIFICATION_TYPE": "U", "NORAD_CAT_ID": 32241, "ELEMENT_SET_NO": 999, "REV_AT_EPOCH": 93746, "BSTAR": 0.0025192166, "MEAN_MOTION_DOT": 7.06e-05, "MEAN_MOTION_DDOT": 0}, "tle": {"line1": "1 32241U 99025CWP 25341.33346359  .00007060  00000+0  25192-2 0  9991", "line2": "2 32241  99.0776  10.5680 0146233 239.0921 119.5814 14.28677435937462"}}, "geometry": {"type": "Point", "coordinates": [37.838245022170604, -70.22988500020824]}}, {"type": "Feature", "properties": {"norad_id": 32243, "name": "FENGYUN 1C DEB", "group": "fengyun-1c-debris", "lat": -81.56308990636133, "lon": 85.77225851971147, "alt_km": 1021.5630570340363, "timestamp": "2025-12-08T03:50:07.283113+00:00", "meta": {"OBJECT_NAME": "FENGYUN 1C DEB", "OBJECT_ID": "1999-025CWR", "EPOCH": "2025-12-07T00:55:13.397664", "MEAN_MOTION": 14.04540046, "ECCENTRICITY": 0.02697118, "INCLINATION": 98.2673, "RA_OF_ASC_NODE": 6.1618, "ARG_OF_PERICENTER": 139.6852, "MEAN_ANOMALY": 222.466, "EPHEMERIS_TYPE": 0, "CLASSIFICATION_TYPE": "U", "NORAD_CAT_ID": 32243, "ELEMENT_SET_NO": 999, "REV_AT_EPOCH": 93508, "BSTAR": 0.0026668664, "MEAN_MOTION_DOT": 5.86e-05, "MEAN_MOTION_DDOT": 0}, "tle": {"line1": "1 32243U 99025CWR 25341.03834951  .00005860  00000+0  26669-2 0  9996", "line2": "2 32243  98.2673   6.1618 0269711 139.6852 222.4660 14.04540046935088"}}, "geometry": {"type": "Point", "coordinates": [85.77225851971147, -81.56308990636133]}}, {"type": "Feature", "properties": {"norad_id": 32245, "name": "FENGYUN 1C DEB", "group": "fengyun-1c-debris", "lat": 66.80972458995872, "lon": 157.05336111283916, "alt_km": 611.0653950889136, "timestamp": "2025-12-08T03:50:07.283123+00:00", "meta": {"OBJECT_NAME": "FENGYUN 1C DEB", "OBJECT_ID": "1999-025CWT", "EPOCH": "2025-12-06T23:53:18.163104", "MEAN_MOTION": 14.76814235, "ECCENTRICITY": 0.00979593, "INCLINATION": 98.6542, "RA_OF_ASC_NODE": 176.6309, "ARG_OF_PERICENTER": 359.9975, "MEAN_ANOMALY": 0.1216, "EPHEMERIS_TYPE": 0, "CLASSIFICATION_TYPE": "U", "NORAD_CAT_ID": 32245, "ELEMENT_SET_NO": 999, "REV_AT_EPOCH": 66021, "BSTAR": 0.0018289926, "MEAN_MOTION_DOT": 0.00013852, "MEAN_MOTION_DDOT": 0}, "tle": {"line1": "1 32245U 99025CWT 25340.99534911  .00013852  00000+0  18290-2 0  9996", "line2": "2 32245  98.6542 176.6309 0097959 359.9975   0.1216 14.76814235660216"}}, "geometry": {"type": "Point", "coordinates": [157.05336111283916, 66.80972458995872]}}, {"type": "Feature", "properties": {"norad_id": 32304, "name": "FENGYUN 1C DEB", "group": "fengyun-1c-debris", "lat": 38.32382029859056, "lon": 123.71696154841705, "alt_km": 727.043231937786, "timestamp": "2025-12-08T03:50:07.283133+00:00", "meta": {"OBJECT_NAME": "FENGYUN 1C DEB", "OBJECT_ID": "1999-025CWV", "EPOCH": "2025-12-03T02:19:20.087328", "MEAN_MOTION": 14.50391603, "ECCENTRICITY": 0.00495576, "INCLINATION": 99.3949, "RA_OF_ASC_NODE": 290.5539, "ARG_OF_PERICENTER": 255.7789, "MEAN_ANOMALY": 103.7894, "EPHEMERIS_TYPE": 0, "CLASSIFICATION_TYPE": "U", "NORAD_CAT_ID": 32304, "ELEMENT_SET_NO": 999, "REV_AT_EPOCH": 56133, "BSTAR": 0.0019806873, "MEAN_MOTION_DOT": 7.809e-05, "MEAN_MOTION_DDOT": 0}, "tle": {"line1": "1 32304U 99025CWV 25337.09676027  .00007809  00000+0  19807-2 0  9994", "line2": "2 32304  99.3949 290.5539 0049557 255.7789 103.7894 14.50391603561335"}}, "geometry": {"type": "Point", "coordinates": [123.71696154841705, 38.32382029859056]}}, {"type": "Feature", "properties": {"norad_id": 32308, "name": "FENGYUN 1C DEB", "group": "fengyun-1c-debris", "lat": 64.85216865167234, "lon": 18.788338032414195, "alt_km": 790.1030180297012, "timestamp": "2025-12-08T03:50:07.283144+00:00", "meta": {"OBJECT_NAME": "FENGYUN 1C DEB", "OBJECT_ID": "1999-025CWZ", "EPOCH": "2025-12-06T13:56:17.681280", "MEAN_MOTION": 14.05453804, "ECCENTRICITY": 0.01091821, "INCLINATION": 97.7755, "RA_OF_ASC_NODE": 34.3534, "ARG_OF_PERICENTER": 78.3987, "MEAN_ANOMALY": 282.9416, "EPHEMERIS_TYPE": 0, "CLASSIFICATION_TYPE": "U", "NORAD_CAT_ID": 32308, "ELEMENT_SET_NO": 999, "REV_AT_EPOCH": 65325, "BSTAR": 0.0028488037, "MEAN_MOTION_DOT": 4.847e-05, "MEAN_MOTION_DDOT": 0}, "tle": {"line1": "1 32308U 99025CWZ 25340.58076020  .00004847  00000+0  28488-2 0  9997", "line2": "2 32308  97.7755  34.3534 0109182  78.3987 282.9416 14.05453804653250"}}, "geometry": {"type": "Point", "coordinates": [18.788338032414195, 64.85216865167234]}}, {"type": "Feature", "properties": {"norad_id": 32314, "name": "FENGYUN 1C DEB", "group": "fengyun-1c-debris", "lat": 33.976373508949585, "lon": -87.22806516193083, "alt_km": 535.3000488562975, "timestamp": "2025-12-08T03:50:07.283154+00:00", "meta": {"OBJECT_NAME": "FENGYUN 1C DEB", "OBJECT_ID": "1999-025CXF", "EPOCH": "2025-12-07T01:12:11.554272", "MEAN_MOTION": 14.79255815, "ECCENTRICITY": 0.0149642, "INCLINATION": 98.8639, "RA_OF_ASC_NODE": 85.5123, "ARG_OF_PERICENTER": 175.5933, "MEAN_ANOMALY": 184.6634, "EPHEMERIS_TYPE": 0, "CLASSIFICATION_TYPE": "U", "NORAD_CAT_ID": 32314, "ELEMENT_SET_NO": 999, "REV_AT_EPOCH": 97346, "BSTAR": 0.0025695971, "MEAN_MOTION_DOT": 0.00023086, "MEAN_MOTION_DDOT": 0}, "tle": {"line1": "1 32314U 99025CXF 25341.05013373  .00023086  00000+0  25696-2 0  9993", "line2": "2 32314  98.8639  85.5123 0149642 175.5933 184.6634 14.79255815973469"}}, "geometry": {"type": "Point", "coordinates": [-87.22806516193083, 33.976373508949585]}}, {"type": "Feature", "properties": {"norad_id": 32315, "name": "FENGYUN 1C DEB", "group": "fengyun-1c-debris", "lat": -60.92565030653826, "lon": 144.87131373050997, "alt_km": 1187.6926210424954, "timestamp": "2025-12-08T03:50:07.283164+00:00", "meta": {"OBJECT_NAME": "FENGYUN 1C DEB", "OBJECT_ID": "1999-025CXG", "EPOCH": "2025-11-20T16:04:27.676128", "MEAN_MOTION": 13.66155502, "ECCENTRICITY": 0.02289149, "INCLINATION": 100.8052, "RA_OF_ASC_NODE": 105.2905, "ARG_OF_PERICENTER": 168.6, "MEAN_ANOMALY": 192.0449, "EPHEMERIS_TYPE": 0, "CLASSIFICATION_TYPE": "U", "NORAD_CAT_ID": 32315, "ELEMENT_SET_NO": 999, "REV_AT_EPOCH": 60787, "BSTAR": 0.00024184327, "MEAN_MOTION_DOT": 1.85e-06, "MEAN_MOTION_DDOT": 0}, "tle": {"line1": "1 32315U 99025CXG 25324.66976477  .00000185  00000+0  24184-3 0  9992", "line2": "2 32315 100.8052 105.2905 0228914 168.6000 192.0449 13.66155502607872"}}, "geometry": {"type": "Point", "coordinates": [144.87131373050997, -60.92565030653826]}}, {"type": "Feature", "properties": {"norad_id": 32316, "name": "FENGYUN 1C DEB", "group": "fengyun-1c-debris", "lat": -68.60604082915653, "lon": 162.6245491838519, "alt_km": 727.9165600228589, "timestamp": "2025-12-08T03:50:07.283174+00:00", "meta": {"OBJECT_NAME": "FENGYUN 1C DEB", "OBJECT_ID": "1999-025CXH", "EPOCH": "2025-12-06T07:44:38.760576", "MEAN_MOTION": 14.51729917, "ECCENTRICITY": 0.00266017, "INCLINATION": 99.5287, "RA_OF_ASC_NODE": 5.931, "ARG_OF_PERICENTER": 348.8773, "MEAN_ANOMALY": 26.1347, "EPHEMERIS_TYPE": 0, "CLASSIFICATION_TYPE": "U", "NORAD_CAT_ID": 32316, "ELEMENT_SET_NO": 999, "REV_AT_EPOCH": 95684, "BSTAR": 0.0030591685, "MEAN_MOTION_DOT": 0.0001231, "MEAN_MOTION_DDOT": 0}, "tle": {"line1": "1 32316U 99025CXH 25340.32267084  .00012310  00000+0  30592-2 0  9993", "line2": "2 32316  99.5287   5.9310 0026601 348.8773  26.1347 14.51729917956841"}}, "geometry": {"type": "Point", "coordinates": [162.6245491838519, -68.60604082915653]}}, {"type": "Feature", "properties": {"norad_id": 32320, "name": "FENGYUN 1C DEB", "group": "fengyun-1c-debris", "lat": 59.012800229379465, "lon": -179.43972926301888, "alt_km": 725.5072307724586, "timestamp": "2025-12-08T03:50:07.283184+00:00", "meta": {"OBJECT_NAME": "FENGYUN 1C DEB", "OBJECT_ID": "1999-025CXM", "EPOCH": "2025-12-06T08:04:56.354304", "MEAN_MOTION": 14.36096557, "ECCENTRICITY": 0.00560395, "INCLINATION": 100.3737, "RA_OF_ASC_NODE": 196.129, "ARG_OF_PERICENTER": 65.6155, "MEAN_ANOMALY": 295.0859, "EPHEMERIS_TYPE": 0, "CLASSIFICATION_TYPE": "U", "NORAD_CAT_ID": 32320, "ELEMENT_SET_NO": 999, "REV_AT_EPOCH": 62081, "BSTAR": 0.001523428, "MEAN_MOTION_DOT": 4.459e-05, "MEAN_MOTION_DDOT": 0}, "tle": {"line1": "1 32320U 99025CXM 25340.33676336  .00004459  00000+0  15234-2 0  9994", "line2": "2 32320 100.3737 196.1290 0056039  65.6155 295.0859 14.36096557620813"}}, "geometry": {"type": "Point", "coordinates": [-179.43972926301888, 59.012800229379465]}}]}